sat30489
1 30489U 99025AHB 20046.77249333  .00000054  00000-0  47275-4 0  9997
2 30489  98.7207 116.3623 0143426 237.4817 247.1635 14.13350329673255
